H1 CPF 01  gfz 2021 04 04 00  5941 terrasarx 
H2 0702601  6201 31698    2021 04 04 00 59 42 2021 04 09 00 00 42   120 1 1  0 0 0
H9
10 0 59309  33102.000000  0    2489219.563  -3740090.419  -5229477.524
10 0 59309  33222.000000  0    1914252.420  -3262239.624  -5764488.749
10 0 59309  33342.000000  0    1315016.839  -2717506.387  -6198760.774
10 0 59309  33462.000000  0     703021.410  -2115059.067  -6524794.498
10 0 59309  33582.000000  0      89804.836  -1465245.374  -6736972.717
10 0 59309  33702.000000  0    -513277.891   -779413.665  -6831646.318
10 0 59309  33822.000000  0   -1095260.156    -69717.179  -6807189.415
10 0 59309  33942.000000  0   -1645758.458    651096.384  -6664023.700
10 0 59309  34062.000000  0   -2155153.406   1369907.837  -6404611.619
10 0 59309  34182.000000  0   -2614753.970   2073459.377  -6033418.595
10 0 59309  34302.000000  0   -3016944.611   2748593.702  -5556845.111
10 0 59309  34422.000000  0   -3355312.622   3382497.853  -4983127.843
10 0 59309  34542.000000  0   -3624754.418   3962946.907  -4322208.988
10 0 59309  34662.000000  0   -3821556.977   4478542.679  -3585573.485
10 0 59309  34782.000000  0   -3943451.320   4918941.668  -2786057.255
10 0 59309  34902.000000  0   -3989638.922   5275068.233  -1937630.072
10 0 59309  35022.000000  0   -3960790.297   5539308.461  -1055154.334
10 0 59309  35142.000000  0   -3859013.498   5705679.859   -154122.379
10 0 59309  35262.000000  0   -3687792.436   5769968.617    749621.198
10 0 59309  35382.000000  0   -3451898.004   5729833.586   1640166.041
10 0 59309  35502.000000  0   -3157271.451   5584873.275   2501826.770
10 0 59309  35622.000000  0   -2810882.997   5336650.971   3319429.019
10 0 59309  35742.000000  0   -2420571.595   4988679.951   4078582.539
10 0 59309  35862.000000  0   -1994869.641   4546370.625   4765938.301
10 0 59309  35982.000000  0   -1542817.298   4016940.264   5369424.617
10 0 59309  36102.000000  0   -1073769.886   3409287.355   5878458.095
10 0 59309  36222.000000  0    -597203.997   2733833.861   6284124.597
10 0 59309  36342.000000  0    -122526.619   2002339.836   6579328.983
10 0 59309  36462.000000  0     341109.362   1227695.133   6758913.352
10 0 59309  36582.000000  0     784981.016    423689.417   6819741.826
10 0 59309  36702.000000  0    1200958.326   -395232.942   6760751.050
10 0 59309  36822.000000  0    1581652.232  -1214231.503   6582968.760
10 0 59309  36942.000000  0    1920545.892  -2018338.131   6289497.082
10 0 59309  37062.000000  0    2212106.879  -2792730.446   5885462.721
10 0 59309  37182.000000  0    2451878.977  -3523006.927   5377932.747
10 0 59309  37302.000000  0    2636551.257  -4195457.787   4775796.210
10 0 59309  37422.000000  0    2764003.667  -4797327.109   4089614.496
10 0 59309  37542.000000  0    2833329.101  -5317061.903   3331439.729
10 0 59309  37662.000000  0    2844829.635  -5744541.777   2514604.704
10 0 59309  37782.000000  0    2799987.162  -6071284.268   1653486.504
10 0 59309  37902.000000  0    2701408.486  -6290618.427    763249.156
10 0 59309  38022.000000  0    2552748.234  -6397825.339   -140428.485
10 0 59309  38142.000000  0    2358609.590  -6390241.590  -1041637.646
10 0 59309  38262.000000  0    2124424.586  -6267319.294  -1924530.125
10 0 59309  38382.000000  0    1856318.016  -6030643.902  -2773604.300
10 0 59309  38502.000000  0    1560957.718  -5683909.114  -3573984.914
10 0 59309  38622.000000  0    1245396.583  -5232846.989  -4311684.990
10 0 59309  38742.000000  0     916912.026  -4685121.515  -4973848.351
10 0 59309  38862.000000  0     582844.365  -4050186.795  -5548968.016
10 0 59309  38982.000000  0     250438.432  -3339113.681  -6027077.952
10 0 59309  39102.000000  0     -73308.179  -2564388.775  -6399915.004
10 0 59309  39222.000000  0    -381787.180  -1739690.871  -6661050.137
10 0 59309  39342.000000  0    -668909.578   -879649.109  -6805988.618
10 0 59309  39462.000000  0    -929221.248       413.883  -6832239.579
10 0 59309  39582.000000  0   -1158003.158    884749.773  -6739353.001
10 0 59309  39702.000000  0   -1351354.837   1757458.831  -6528926.256
10 0 59309  39822.000000  0   -1506259.376   2602768.507  -6204579.335
10 0 59309  39942.000000  0   -1620630.051   3405312.762  -5771900.936
10 0 59309  40062.000000  0   -1693337.687   4150409.320  -5238361.837
10 0 59309  40182.000000  0   -1724217.879   4824329.142  -4613197.644
10 0 59309  40302.000000  0   -1714058.499   5414554.787  -3907259.651
10 0 59309  40422.000000  0   -1664566.436   5910020.380  -3132834.997
10 0 59309  40542.000000  0   -1578314.022   6301328.337  -2303439.842
10 0 59309  40662.000000  0   -1458666.916   6580939.555  -1433587.443
10 0 59309  40782.000000  0   -1309693.931   6743329.611   -538533.581
10 0 59309  40902.000000  0   -1136061.298   6785108.082    365993.568
10 0 59309  41022.000000  0    -942913.039   6705097.874   1264077.252
10 0 59309  41142.000000  0    -735741.200   6504367.890   2139903.461
10 0 59309  41262.000000  0    -520248.833   6186217.661   2978048.509
10 0 59309  41382.000000  0    -302209.759   5756118.707   3763756.839
10 0 59309  41502.000000  0     -87329.284   5221614.947   4483205.426
10 0 59309  41622.000000  0     118891.851   4592181.243   5123753.460
10 0 59309  41742.000000  0     311287.800   3879041.492   5674161.490
10 0 59309  41862.000000  0     485146.937   3094961.903   6124784.614
10 0 59309  41982.000000  0     636318.426   2254013.862   6467737.478
10 0 59309  42102.000000  0     761304.180   1371315.929   6697025.782
10 0 59309  42222.000000  0     857334.662    462758.422   6808645.220
10 0 59309  42342.000000  0     922427.093   -455282.712   6800646.194
10 0 59309  42462.000000  0     955425.158  -1366239.996   6673167.004
10 0 59309  42582.000000  0     956019.533  -2253653.277   6428432.030
10 0 59309  42702.000000  0     924748.966  -3101467.426   6070716.051
10 0 59309  42822.000000  0     862981.260  -3894325.210   5606272.926
10 0 59309  42942.000000  0     772875.653  -4617847.057   5043230.523
10 0 59309  43062.000000  0     657327.651  -5258895.993   4391455.468
10 0 59309  43182.000000  0     519896.251  -5805825.013   3662386.620
10 0 59309  43302.000000  0     364714.456  -6248699.376   2868836.913
10 0 59309  43422.000000  0     196385.427  -6579487.360   2024767.750
10 0 59309  43542.000000  0      19866.466  -6792214.603   1145040.848
10 0 59309  43662.000000  0    -159655.866  -6883081.150    245151.631
10 0 59309  43782.000000  0    -336897.604  -6850534.233   -659053.596
10 0 59309  43902.000000  0    -506611.069  -6695293.522  -1551666.696
10 0 59309  44022.000000  0    -663717.231  -6420330.461  -2417005.450
10 0 59309  44142.000000  0    -803433.896  -6030804.232  -3239895.102
10 0 59309  44262.000000  0    -921396.713  -5533954.792  -4005938.787
10 0 59309  44382.000000  0   -1013769.581  -4938955.297  -4701770.114
10 0 59309  44502.000000  0   -1077341.864  -4256729.870  -5315281.997
10 0 59309  44622.000000  0   -1109610.634  -3499742.393  -5835829.858
10 0 59309  44742.000000  0   -1108846.049  -2681760.683  -6254406.748
10 0 59309  44862.000000  0   -1074139.050  -1817600.868  -6563788.188
10 0 59309  44982.000000  0   -1005430.855   -922857.942  -6758645.207
10 0 59309  45102.000000  0    -903524.219    -13627.121  -6835626.706
10 0 59309  45222.000000  0    -770075.363    893780.473  -6793410.056
10 0 59309  45342.000000  0    -607567.216   1783122.666  -6632720.826
10 0 59309  45462.000000  0    -419265.145   2638509.339  -6356321.702
10 0 59309  45582.000000  0    -209154.845   3444680.527  -5968971.580
10 0 59309  45702.000000  0      18137.565   4187276.785  -5477352.668
10 0 59309  45822.000000  0     257441.104   4853095.031  -4889965.476
10 0 59309  45942.000000  0     503149.511   5430328.130  -4216993.783
10 0 59309  46062.000000  0     749343.651   5908782.949  -3470138.099
10 0 59309  46182.000000  0     989924.182   6280070.977  -2662420.086
10 0 59309  46302.000000  0    1218751.782   6537767.945  -1807960.560
10 0 59309  46422.000000  0    1429791.819   6677537.818   -921733.431
10 0 59309  46542.000000  0    1617260.095   6697216.721    -19299.998
10 0 59309  46662.000000  0    1775765.472   6596853.013    883470.765
10 0 59309  46782.000000  0    1900445.044   6378703.295   1770688.646
10 0 59309  46902.000000  0    1987089.603   6047184.731   2626729.916
10 0 59309  47022.000000  0    2032255.778   5608784.383   3436520.154
10 0 59309  47142.000000  0    2033361.853   5071927.909   4185807.248
10 0 59309  47262.000000  0    1988763.949   4446809.547   4861417.606
10 0 59309  47382.000000  0    1897812.052   3745186.838   5451489.813
10 0 59309  47502.000000  0    1760883.538   2980150.021   5945678.249
10 0 59309  47622.000000  0    1579395.753   2165871.859   6335330.287
10 0 59309  47742.000000  0    1355795.776   1317339.207   6613633.006
10 0 59309  47862.000000  0    1093528.234    450072.907   6775725.498
10 0 59309  47982.000000  0     796982.118   -420156.018   6818777.441
10 0 59309  48102.000000  0     471417.248  -1277612.059   6742037.088
10 0 59309  48222.000000  0     122870.778  -2106880.043   6546843.966
10 0 59309  48342.000000  0    -241954.792  -2893142.340   6236606.958
10 0 59309  48462.000000  0    -615819.335  -3622445.068   5816746.758
10 0 59309  48582.000000  0    -991085.728  -4281946.157   5294605.044
10 0 59309  48702.000000  0   -1359872.732  -4860144.958   4679324.565
10 0 59309  48822.000000  0   -1714219.096  -5347091.515   3981696.831
10 0 59309  48942.000000  0   -2046253.571  -5734568.188   3213976.046
10 0 59309  49062.000000  0   -2348367.386  -6016237.062   2389663.953
10 0 59309  49182.000000  0   -2613384.976  -6187750.784   1523270.480
10 0 59309  49302.000000  0   -2834728.334  -6246825.047    630053.560
10 0 59309  49422.000000  0   -3006571.203  -6193269.934   -274256.692
10 0 59309  49542.000000  0   -3123979.069  -6028979.080  -1173743.543
99
